{"type": "FeatureCollection", "features": [ {"type": "Feature", "properties": {"norad_id": 67228, "name": "QPS-SAR-15", "group": "last-30-days", "lat": -35.196833088002926, "lon": -30.383654579317625, "alt_km": 574.9987540020829, "timestamp": "2025-12-25T22:42:15.713143+00:00", "meta": {"OBJECT_NAME": "QPS-SAR-15", "OBJECT_ID": "2025-307A", "EPOCH": "2025-12-25T15:14:02.675616", "MEAN_MOTION": 14.97088724, "ECCENTRICITY": 0.0010062, "INCLINATION": 42.0066, "RA_OF_ASC_NODE": 99.7194, "ARG_OF_PERICENTER": 294.4282, "MEAN_ANOMALY": 65.5493, "EPHEMERIS_TYPE": 0, "CLASSIFICATION_TYPE": "U", "NORAD_CAT_ID": 67228, "ELEMENT_SET_NO": 999, "REV_AT_EPOCH": 65, "BSTAR": 0.00052701, "MEAN_MOTION_DOT": 6.008e-05, "MEAN_MOTION_DDOT": 0}, "tle": {"line1": "1 67228U 25307A   25359.63475319  .00006008  00000+0  52701-3 0  9995", "line2": "2 67228  42.0066  99.7194 0010062 294.4282  65.5493 14.97088724   657"}}, "geometry": {"type": "Point", "coordinates": [-30.383654579317625, -35.196833088002926]}}, {"type": "Feature", "properties": {"norad_id": 67229, "name": "ELECTRON KICK STAGE R/B", "group": "last-30-days", "lat": 32.58723835996249, "lon": -129.62591664471793, "alt_km": 520.7980666520361, "timestamp": "2025-12-25T22:42:15.713154+00:00", "meta": {"OBJECT_NAME": "ELECTRON KICK STAGE R/B", "OBJECT_ID": "2025-307B", "EPOCH": "2025-12-25T08:17:16.936224", "MEAN_MOTION": 15.56484039, "ECCENTRICITY": 0.0243047, "INCLINATION": 42.0009, "RA_OF_ASC_NODE": 99.251, "ARG_OF_PERICENTER": 265.5143, "MEAN_ANOMALY": 91.7904, "EPHEMERIS_TYPE": 0, "CLASSIFICATION_TYPE": "U", "NORAD_CAT_ID": 67229, "ELEMENT_SET_NO": 999, "REV_AT_EPOCH": 63, "BSTAR": 0.0014659, "MEAN_MOTION_DOT": 0.00455769, "MEAN_MOTION_DDOT": 6.2045e-05}, "tle": {"line1": "1 67229U 25307B   25359.34533491  .00455769  62045-4  14659-2 0  9993", "line2": "2 67229  42.0009  99.2510 0243047 265.5143  91.7904 15.56484039   639"}}, "geometry": {"type": "Point", "coordinates": [-129.62591664471793, 32.58723835996249]}}, {"type": "Feature", "properties": {"norad_id": 67230, "name": "ELECTRON R/B", "group": "last-30-days", "lat": 28.406212490884503, "lon": -121.36906893862691, "alt_km": 565.4439330848636, "timestamp": "2025-12-25T22:42:15.713164+00:00", "meta": {"OBJECT_NAME": "ELECTRON R/B", "OBJECT_ID": "2025-307C", "EPOCH": "2025-12-21T08:41:59.140320", "MEAN_MOTION": 15.55087105, "ECCENTRICITY": 0.02614087, "INCLINATION": 41.982, "RA_OF_ASC_NODE": 123.1026, "ARG_OF_PERICENTER": 268.141, "MEAN_ANOMALY": 88.9482, "EPHEMERIS_TYPE": 0, "CLASSIFICATION_TYPE": "U", "NORAD_CAT_ID": 67230, "ELEMENT_SET_NO": 999, "REV_AT_EPOCH": 1, "BSTAR": 0.00020247584, "MEAN_MOTION_DOT": 0.00071881, "MEAN_MOTION_DDOT": 8.106877e-06}, "tle": {"line1": "1 67230U 25307C   25355.36249005  .00071881  81069-5  20248-3 0  9997", "line2": "2 67230  41.9820 123.1026 0261408 268.1410  88.9482 15.55087105    19"}}, "geometry": {"type": "Point", "coordinates": [-121.36906893862691, 28.406212490884503]}}, {"type": "Feature", "properties": {"norad_id": 67231, "name": "2025-308A", "group": "last-30-days", "lat": -65.8626253584531, "lon": -69.22617609998811, "alt_km": 214.9957129005752, "timestamp": "2025-12-25T22:42:15.713174+00:00", "meta": {"OBJECT_NAME": "2025-308A", "OBJECT_ID": "2025-308A", "EPOCH": "2025-12-25T14:16:01.628256", "MEAN_MOTION": 16.24595622, "ECCENTRICITY": 0.0022528, "INCLINATION": 69.707, "RA_OF_ASC_NODE": 56.1878, "ARG_OF_PERICENTER": 149.7372, "MEAN_ANOMALY": 210.5155, "EPHEMERIS_TYPE": 0, "CLASSIFICATION_TYPE": "U", "NORAD_CAT_ID": 67231, "ELEMENT_SET_NO": 999, "REV_AT_EPOCH": 41, "BSTAR": 0.00053553, "MEAN_MOTION_DOT": 0.01578408, "MEAN_MOTION_DDOT": 4.3819e-06}, "tle": {"line1": "1 67231U 25308A   25359.59446329  .01578408  43819-5  53553-3 0  9990", "line2": "2 67231  69.7070  56.1878 0022528 149.7372 210.5155 16.24595622   413"}}, "geometry": {"type": "Point", "coordinates": [-69.22617609998811, -65.8626253584531]}}]}